OBJECT_NAME,OBJECT_ID,EPOCH,MEAN_MOTION,ECCENTRICITY,INCLINATION,RA_OF_ASC_NODE,ARG_OF_PERICENTER,MEAN_ANOMALY,EPHEMERIS_TYPE,CLASSIFICATION_TYPE,NORAD_CAT_ID,ELEMENT_SET_NO,REV_AT_EPOCH,BSTAR,MEAN_MOTION_DOT,MEAN_MOTION_DDOT
ONEWEB-0395,2021-132G,2026-07-16T23:58:40.029888,13.11419423,.00019992,87.8885,15.1298,84.6037,275.5319,0,U,50475,999,21962,-.26386438E-3,-.81E-6,0
ONEWEB-0396,2021-132H,2026-07-16T21:51:36.309024,13.18686427,.00017382,87.9199,329.5451,96.9203,263.2126,0,U,50476,999,22555,-.48905525E-4,-.6E-7,0
ONEWEB-0397,2021-132J,2026-07-17T07:19:45.632928,13.18687301,.0001658,87.9199,329.4664,99.2107,260.9212,0,U,50477,999,22558,.11526391E-3,.58E-6,0
ONEWEB-0398,2021-132K,2026-07-16T23:12:17.270784,13.11414946,.00021615,87.8890,15.1291,88.3869,271.7507,0,U,50478,999,21951,-.45525031E-3,-.149E-5,0
ONEWEB-0399,2021-132L,2026-07-16T22:52:46.212096,13.11415280,.00015084,87.8893,15.1431,78.0701,282.0596,0,U,50479,999,21950,.10918746E-2,.4E-5,0
ONEWEB-0400,2021-132M,2026-07-16T21:41:53.065824,13.18684497,.00020451,87.9200,329.5362,96.4544,263.6821,0,U,50480,999,22552,-.10609055E-3,-.29E-6,0
ONEWEB-0401,2021-132N,2026-07-17T07:53:45.709728,13.18686592,.00017967,87.9202,329.4495,105.3566,254.7765,0,U,50481,999,22558,.71737149E-4,.41E-6,0
ONEWEB-0402,2021-132P,2026-07-16T21:54:01.013472,13.18687406,.0001621,87.9199,329.5206,113.0699,247.0605,0,U,50482,999,22555,-.341942E-5,.12E-6,0
ONEWEB-0403,2021-132Q,2026-07-17T07:36:45.911520,13.18686529,.00018257,87.9198,329.4648,93.8912,266.2429,0,U,50483,999,22556,.16345376E-3,.77E-6,0
ONEWEB-0404,2021-132R,2026-07-17T05:45:22.453344,13.11417586,.00018032,87.8889,15.0828,81.0352,279.0980,0,U,50484,999,21963,.93480583E-3,.344E-5,0
ONEWEB-0405,2021-132S,2026-07-17T07:56:11.262624,13.18684782,.0002369,87.9201,329.4475,95.9667,264.1735,0,U,50485,999,22596,.15271604E-3,.73E-6,0
ONEWEB-0406,2021-132T,2026-07-16T20:48:28.065600,13.18686496,.00017122,87.9194,329.5541,82.0312,278.1014,0,U,50486,999,22553,.11994609E-3,.6E-6,0
ONEWEB-0407,2021-132U,2026-07-17T07:34:18.759360,13.18685827,.00019803,87.9200,329.4588,103.6655,256.4698,0,U,50487,999,22553,-.47860975E-3,-.176E-5,0
ONEWEB-0409,2021-132V,2026-07-16T13:14:07.949760,13.11418049,.00019104,87.8891,15.2093,82.4001,277.7344,0,U,50488,999,21943,.91230808E-3,.336E-5,0
ONEWEB-0412,2021-132W,2026-07-17T07:17:20.067072,13.18687036,.00016966,87.9198,329.4684,106.3604,253.7715,0,U,50489,999,22562,.19989012E-3,.92E-6,0
ONEWEB-0413,2021-132X,2026-07-17T07:24:36.689472,13.18688225,.00018645,87.9189,329.4636,108.0093,252.1243,0,U,50490,999,22556,.18993775E-3,.88E-6,0
ONEWEB-0414,2021-132Y,2026-07-16T21:56:27.257568,13.18686873,.00016986,87.9199,329.5269,97.7568,262.3757,0,U,50491,999,22554,-.87778482E-4,-.22E-6,0
ONEWEB-0417,2021-132Z,2026-07-17T07:14:53.962080,13.18687453,.00018523,87.9193,329.4668,92.9990,267.1354,0,U,50492,999,22557,.13462069E-3,.66E-6,0
ONEWEB-0418,2021-132AA,2026-07-17T07:29:16.452672,13.18686232,.00018626,87.9195,329.4664,90.1193,270.0153,0,U,50493,999,22563,.17342085E-3,.81E-6,0
ONEWEB-0419,2021-132AB,2026-07-17T07:56:43.060416,13.18666001,.00020882,87.9199,329.4635,92.6717,267.4654,0,U,50494,999,22555,.13026788E-3,.64E-6,0
ONEWEB-0420,2021-132AC,2026-07-16T21:58:52.061376,13.18684530,.00020394,87.9192,329.5458,104.2674,255.8685,0,U,50495,999,22549,-.39384484E-4,-.3E-7,0
ONEWEB-0421,2021-132AD,2026-07-16T21:49:11.291808,13.18686468,.00015367,87.9193,329.5454,102.7530,257.3774,0,U,50496,999,22553,-.4403933E-5,.11E-6,0
ONEWEB-0424,2021-132AE,2026-07-16T20:53:19.845312,13.18686470,.00022122,87.9198,329.5533,92.8998,267.2388,0,U,50497,999,22555,.13535765E-3,.66E-6,0
ONEWEB-0426,2021-132AF,2026-07-16T21:43:06.522240,13.18686449,.00013256,87.9200,329.5369,83.9003,276.2280,0,U,50498,999,22550,-.14478573E-3,-.44E-6,0
ONEWEB-0427,2021-132AG,2026-07-16T20:50:54.255264,13.18686702,.00018125,87.9200,329.5335,91.6684,268.4656,0,U,50499,999,22552,.90278829E-4,.48E-6,0
ONEWEB-0429,2021-132AH,2026-07-16T20:31:27.557184,13.18687374,.00019374,87.9191,329.5584,102.1055,258.0295,0,U,50500,999,22549,.14664944E-4,.19E-6,0
ONEWEB-0430,2021-132AJ,2026-07-17T07:10:01.768512,13.18688920,.00021148,87.9192,329.4686,103.1399,256.9969,0,U,50501,999,22559,.90590236E-4,.49E-6,0
ONEWEB-0432,2021-132AK,2026-07-16T21:39:16.252416,13.18686459,.0002338,87.9198,329.5343,97.4537,262.6861,0,U,50502,999,22549,-.58187249E-4,-.1E-6,0
ONEWEB-0440,2021-132AL,2026-07-17T07:39:10.753344,13.18687301,.00017491,87.9200,329.4631,107.5416,252.5907,0,U,50503,999,22554,.19725876E-3,.91E-6,0
ONEWEB-0450,2021-132AM,2026-07-17T07:29:40.260192,13.18687120,.00020253,87.9190,329.4666,103.0402,257.0956,0,U,50504,999,22557,.15232767E-3,.73E-6,0
